NORAD_CAT_ID,OBJECT_NAME,OBJECT_TYPE,EPOCH,MEAN_MOTION,ECCENTRICITY,INCLINATION,RA_OF_ASC_NODE,ARG_OF_PERICENTER,MEAN_ANOMALY,BSTAR,MEAN_MOTION_DOT,MEAN_MOTION_DDOT,TLE_LINE0,TLE_LINE1,TLE_LINE2,SEMIMAJOR_AXIS,PERIOD,APOGEE,PERIGEE,DECAYED
49146.0,STARLINK-3116,PAYLOAD,2022-04-01 14:00:01,14.96718003,0.0003302,69.9971,299.5068,274.4641,164.3349,0.0010964,0.00012481,0.0,0 STARLINK-3116,1 49146U 21082S   22091.58334491  .00012481  00000-0  10964-2 0  9996,2 49146  69.9971 299.5068 0003302 274.4641 164.3349 14.96718003 32253,6955.182,96.211,579.344,574.751,0.0
49146.0,STARLINK-3116,PAYLOAD,2022-04-01 22:00:00,14.96708949,0.0003355,69.997,298.6682,280.0246,154.3298,0.0013228,0.00015079,0.0,0 STARLINK-3116,1 49146U 21082S   22091.91667824  .00015079  00000-0  13228-2 0  9994,2 49146  69.9970 298.6682 0003355 280.0246 154.3298 14.96708949  3568,6955.21,96.211,579.409,574.742,0.0
49146.0,STARLINK-3116,PAYLOAD,2022-04-02 06:00:00,14.96728958,0.0003285,69.9968,297.8295,278.3179,151.5838,-0.0060075,-0.0006821,0.0,0 STARLINK-3116,1 49146U 21082S   22092.25001157 -.00068210  00000-0 -60075-2 0  9992,2 49146  69.9968 297.8295 0003285 278.3179 151.5838 14.96728958 32342,6955.148,96.21,579.298,574.729,0.0
49146.0,STARLINK-3116,PAYLOAD,2022-04-02 14:00:01,14.96708031,0.0003261,69.9971,296.9909,274.1413,151.3564,0.00086844,9.861e-05,0.0,0 STARLINK-3116,1 49146U 21082S   22092.58335648  .00009861  00000-0  86844-3 0  9991,2 49146  69.9971 296.9909 0003261 274.1413 151.3564 14.96708031 32396,6955.2130000000025,96.211,579.346,574.81,0.0
49146.0,STARLINK-3116,PAYLOAD,2022-04-02 22:00:01,14.9669247,0.0003302,69.997,296.1523,279.8867,141.1544,0.0023569,0.00026974,0.0,0 STARLINK-3116,1 49146U 21082S   22092.91668981  .00026974  00000-0  23569-2 0  9995,2 49146  69.9970 296.1523 0003302 279.8867 141.1544 14.96692470  3583,6955.261,96.212,579.423,574.83,0.0
49146.0,STARLINK-3116,PAYLOAD,2022-04-03 14:00:01,14.96724089,0.0003303,69.9972,294.4752,274.223,137.8186,-1.4392e-05,-2.56e-06,0.0,0 STARLINK-3116,1 49146U 21082S   22093.58334491 -.00000256  00000-0 -14392-4 0  9998,2 49146  69.9972 294.4752 0003303 274.2230 137.8186 14.96724089 32548,6955.163000000001,96.21,579.326,574.731,0.0
49146.0,STARLINK-3116,PAYLOAD,2022-04-03 22:00:00,14.96700817,0.0003312,69.9972,293.6366,280.0496,127.551,0.0027108,0.00031063,0.0,0 STARLINK-3116,1 49146U 21082S   22093.91667824  .00031063  00000-0  27108-2 0  9999,2 49146  69.9972 293.6366 0003312 280.0496 127.5510 14.96700817  3570,6955.236,96.212,579.404,574.797,0.0
49146.0,STARLINK-3116,PAYLOAD,2022-04-04 06:00:02,14.96709059,0.0003165,69.997,292.7981,277.4775,125.6854,-0.0024656,-0.00028194,0.0,0 STARLINK-3116,1 49146U 21082S   22094.25002315 -.00028194  00000-0 -24656-2 0  9993,2 49146  69.9970 292.7981 0003165 277.4775 125.6854 14.96709059 32644,6955.21,96.211,579.276,574.874,0.0
49146.0,STARLINK-3116,PAYLOAD,2022-04-04 14:00:01,14.96718501,0.0003199,69.9974,291.9596,274.1164,124.5064,-0.00063541,-7.357e-05,0.0,0 STARLINK-3116,1 49146U 21082S   22094.58334491 -.00007357  00000-0 -63541-3 0  9997,2 49146  69.9974 291.9596 0003199 274.1164 124.5064 14.96718501  3588,6955.181,96.21,579.271,574.821,0.0
49146.0,STARLINK-3116,PAYLOAD,2022-04-04 22:00:00,14.96693617,0.0003208999999999,69.9974,291.1211,280.3982,113.7785,0.0031105,0.00035673,0.0,0 STARLINK-3116,1 49146U 21082S   22094.91667824  .00035673  00000-0  31105-2 0  9993,2 49146  69.9974 291.1211 0003209 280.3982 113.7785 14.96693617 32743,6955.2580000000025,96.212,579.355,574.891,0.0
49146.0,STARLINK-3116,PAYLOAD,2022-04-05 14:00:01,14.96729992,0.0003158,69.9975,289.444,274.3038,111.0053,-0.0010321,-0.00011889,0.0,0 STARLINK-3116,1 49146U 21082S   22095.58335648 -.00011889  00000-0 -10321-2 0  9995,2 49146  69.9975 289.4440 0003158 274.3038 111.0053 14.96729992 32842,6955.145,96.21,579.207,574.814,0.0
49146.0,STARLINK-3116,PAYLOAD,2022-04-05 22:00:00,14.96702325,0.0003187,69.9975,288.6054,280.4468,100.3643,0.0029654,0.00034004,0.0,0 STARLINK-3116,1 49146U 21082S   22095.91667824  .00034004  00000-0  29654-2 0  9997,2 49146  69.9975 288.6054 0003187 280.4468 100.3643 14.96702325  3600,6955.231,96.212,579.313,574.879,0.0
49146.0,STARLINK-3116,PAYLOAD,2022-04-06 14:00:01,14.96742302,0.0003173,69.9976,286.9283,273.5874,98.3196,-0.0011467,-0.00013201,0.0,0 STARLINK-3116,1 49146U 21082S   22096.58334491 -.00013201  00000-0 -11467-2 0  9993,2 49146  69.9976 286.9283 0003173 273.5874  98.3196 14.96742302 32997,6955.107,96.209,579.179,574.765,0.0
49146.0,STARLINK-3116,PAYLOAD,2022-04-06 22:00:00,14.96712771,0.0003221,69.9977,286.0897,279.442,88.041,0.0030235,0.00034685,0.0,0 STARLINK-3116,1 49146U 21082S   22096.91667824  .00034685  00000-0  30235-2 0  9990,2 49146  69.9977 286.0897 0003221 279.4420  88.0410 14.96712771  3592,6955.199000000001,96.211,579.304,574.823,0.0
49146.0,STARLINK-3116,PAYLOAD,2022-04-07 14:00:01,14.96764978,0.000319,69.9978,284.4127,273.1092,85.4893,-0.0054191,-0.00061652,0.0,0 STARLINK-3116,1 49146U 21082S   22097.58334491 -.00061652  00000-0 -54191-2 0  9998,2 49146  69.9978 284.4127 0003190 273.1092  85.4893 14.96764978  3606,6955.0369999999975,96.207,579.12,574.683,0.0
49146.0,STARLINK-3116,PAYLOAD,2022-04-07 20:00:01,14.96705775,0.0003163,69.9977,283.7837,278.2578,347.0391,0.00087746,9.963e-05,0.0,0 STARLINK-3116,1 49146U 21082S   22097.83334491  .00009963  00000-0  87746-3 0  9994,2 49146  69.9977 283.7837 0003163 278.2578 347.0391 14.96705775 33186,6955.22,96.211,579.285,574.885,0.0
49146.0,STARLINK-3116,PAYLOAD,2022-04-07 22:00:00,14.96695218,0.0003162,69.9977,283.5741,279.0097,75.1755,0.0032303,0.00037059,0.0,0 STARLINK-3116,1 49146U 21082S   22097.91667824  .00037059  00000-0  32303-2 0  9997,2 49146  69.9977 283.5741 0003162 279.0097  75.1755 14.96695218  3586,6955.253000000002,96.212,579.317,574.919,0.0
49146.0,STARLINK-3116,PAYLOAD,2022-04-08 14:00:03,14.96744696,0.00032,69.9979,281.8971,273.1862,72.2069,-0.0021562,-0.00024703,0.0,0 STARLINK-3116,1 49146U 21082S   22098.58336806 -.00024703  00000-0 -21562-2 0  9993,2 49146  69.9979 281.8971 0003200 273.1862  72.2069 14.96744696  3583,6955.1,96.209,579.19,574.739,0.0
49146.0,STARLINK-3116,PAYLOAD,2022-04-08 22:00:00,14.967147400000002,0.0003176,69.9977,281.0587,279.1921,61.6511,0.0022842,0.0002615,0.0,0 STARLINK-3116,1 49146U 21082S   22098.91667824  .00026150  00000-0  22842-2 0  9995,2 49146  69.9977 281.0587 0003176 279.1921  61.6511 14.96714740 33348,6955.191999999999,96.211,579.266,574.8480000000002,0.0
49146.0,STARLINK-3116,PAYLOAD,2022-04-09 06:00:00,14.96714778,0.0003082,69.9976,280.2202,275.5073,60.8954,-0.0022276,-0.00025495,0.0,0 STARLINK-3116,1 49146U 21082S   22099.25001157 -.00025495  00000-0 -22276-2 0  9998,2 49146  69.9976 280.2202 0003082 275.5073  60.8954 14.96714778 33394,6955.191999999999,96.211,579.201,574.914,0.0
49146.0,STARLINK-3116,PAYLOAD,2022-04-09 14:00:01,14.96728519,0.0003096,69.9978,279.3819,273.7248,58.2041,-0.0028516,-0.0003259,0.0,0 STARLINK-3116,1 49146U 21082S   22099.58334491 -.00032590  00000-0 -28516-2 0  9991,2 49146  69.9978 279.3819 0003096 273.7248  58.2041 14.96728519  3582,6955.15,96.21,579.168,574.861,0.0
49146.0,STARLINK-3116,PAYLOAD,2022-04-09 22:00:00,14.96689261,0.0003074,69.9975,278.5435,280.062,47.4188,0.0034551,0.00039653,0.0,0 STARLINK-3116,1 49146U 21082S   22099.91667824  .00039653  00000-0  34551-2 0  9998,2 49146  69.9975 278.5435 0003074 280.0620  47.4188 14.96689261 33490,6955.271,96.212,579.274,574.998,0.0
49146.0,STARLINK-3116,PAYLOAD,2022-04-10 14:00:01,14.96740312,0.0003061,69.9976,276.8667,274.4439,44.1082,-0.0028589,-0.00032682,0.0,0 STARLINK-3116,1 49146U 21082S   22100.58334491 -.00032682  00000-0 -28589-2 0  9996,2 49146  69.9976 276.8667 0003061 274.4439  44.1082 14.96740312 33593,6955.113,96.209,579.107,574.849,0.0
49146.0,STARLINK-3116,PAYLOAD,2022-04-10 22:00:00,14.96705513,0.0003062,69.9973,276.0283,280.7721,33.348,0.0034496,0.00039606,0.0,0 STARLINK-3116,1 49146U 21082S   22100.91667824  .00039606  00000-0  34496-2 0  9997,2 49146  69.9973 276.0283 0003062 280.7721  33.3480 14.96705513  3583,6955.221,96.211,579.216,574.956,0.0
49146.0,STARLINK-3116,PAYLOAD,2022-04-11 06:00:00,14.96714836,0.0002967,69.9971,275.1897,275.798,33.8829,0.00084722,9.619e-05,0.0,0 STARLINK-3116,1 49146U 21082S   22101.25001157  .00009619  00000-0  84722-3 0  9995,2 49146  69.9971 275.1897 0002967 275.7980  33.8829 14.96714836 33691,6955.191999999999,96.211,579.121,574.994,0.0
49146.0,STARLINK-3116,PAYLOAD,2022-04-11 14:00:01,14.96738861,0.0002961,69.9973,274.3512,274.482,30.7423,-0.0045528,-0.00051848,0.0,0 STARLINK-3116,1 49146U 21082S   22101.58334491 -.00051848  00000-0 -45528-2 0  9994,2 49146  69.9973 274.3512 0002961 274.4820  30.7423 14.96738861  3586,6955.118,96.209,579.0419999999998,574.923,0.0
49146.0,STARLINK-3116,PAYLOAD,2022-04-11 22:00:00,14.96690096,0.0002966,69.997,273.5127,280.599,20.1783,0.0030636,0.00035127,0.0,0 STARLINK-3116,1 49146U 21082S   22101.91667824  .00035127  00000-0  30636-2 0  9994,2 49146  69.9970 273.5127 0002966 280.5990  20.1783 14.96690096 33792,6955.269,96.212,579.197,575.071,0.0
49146.0,STARLINK-3116,PAYLOAD,2022-04-12 14:00:01,14.96740071,0.0002959,69.9984,271.8375,273.7986,18.0337,-0.0049779,-0.00056644,0.0,0 STARLINK-3116,1 49146U 21082S   22102.58334491 -.00056644  00000-0 -49779-2 0  9996,2 49146  69.9984 271.8375 0002959 273.7986  18.0337 14.96740071 33895,6955.114000000001,96.209,579.0369999999998,574.9209999999998,0.0
49146.0,STARLINK-3116,PAYLOAD,2022-04-12 22:00:00,14.96698223,0.0003038,69.9968,270.9971,279.5478,7.8441,0.0029386,0.00033691,0.0,0 STARLINK-3116,1 49146U 21082S   22102.91667824  .00033691  00000-0  29386-2 0  9999,2 49146  69.9968 270.9971 0003038 279.5478   7.8441 14.96698223  3573,6955.244000000002,96.212,579.222,574.996,0.0
